[{"OBJECT_NAME":"STARLINK-1047","OBJECT_ID":"2019-074AR","EPOCH":"2026-03-09T11:54:40.842720","MEAN_MOTION":15.32581056,"ECCENTRICITY":0.00022261,"INCLINATION":53.069,"RA_OF_ASC_NODE":146.9116,"ARG_OF_PERICENTER":203.7253,"MEAN_ANOMALY":156.3646,"EPHEMERIS_TYPE":0,"CLASSIFICATION_TYPE":"U","NORAD_CAT_ID":44752,"ELEMENT_SET_NO":999,"REV_AT_EPOCH":34931,"BSTAR":0.00039384285,"MEAN_MOTION_DOT":0.00012216,"MEAN_MOTION_DDOT":0},{"OBJECT_NAME":"ION SCV-015","OBJECT_ID":"2023-185H","EPOCH":"2026-03-09T22:36:51.209568","MEAN_MOTION":15.3163624,"ECCENTRICITY":0.00109059,"INCLINATION":97.5772,"RA_OF_ASC_NODE":155.3582,"ARG_OF_PERICENTER":92.3805,"MEAN_ANOMALY":267.8685,"EPHEMERIS_TYPE":0,"CLASSIFICATION_TYPE":"U","NORAD_CAT_ID":58469,"ELEMENT_SET_NO":999,"REV_AT_EPOCH":12588,"BSTAR":0.00030895808,"MEAN_MOTION_DOT":9.376e-5,"MEAN_MOTION_DDOT":0}]
